{"fetched_at":"2026-07-19T07:05:16.284Z","source":"https://celestrak.org/NORAD/elements/gp.php?NAME=ICEYE&FORMAT=JSON","constellation":"iceye","records":[{"OBJECT_NAME":"ICEYE-X72","OBJECT_ID":"2026-067CS","EPOCH":"2026-07-18T07:30:09.771840","CLASSIFICATION_TYPE":"U","MEAN_MOTION":14.96699913,"ECCENTRICITY":0.00012391,"INCLINATION":97.7643,"RA_OF_ASC_NODE":157.2619,"ARG_OF_PERICENTER":169.2669,"MEAN_ANOMALY":190.8579,"EPHEMERIS_TYPE":0,"NORAD_CAT_ID":68504,"ELEMENT_SET_NO":999,"REV_AT_EPOCH":1637,"BSTAR":0.0082712464,"MEAN_MOTION_DOT":0.00095641,"MEAN_MOTION_DDOT":0},{"OBJECT_NAME":"ICEYE-X78","OBJECT_ID":"2026-100R","EPOCH":"2026-07-18T11:11:49.025760","CLASSIFICATION_TYPE":"U","MEAN_MOTION":14.91815319,"ECCENTRICITY":0.00033857,"INCLINATION":97.7328,"RA_OF_ASC_NODE":96.3374,"ARG_OF_PERICENTER":48.0647,"MEAN_ANOMALY":312.086,"EPHEMERIS_TYPE":0,"NORAD_CAT_ID":68995,"ELEMENT_SET_NO":999,"REV_AT_EPOCH":1136,"BSTAR":0.000058214886,"MEAN_MOTION_DOT":0.00000532,"MEAN_MOTION_DDOT":0},{"OBJECT_NAME":"ICEYE-X82","OBJECT_ID":"2026-100S","EPOCH":"2026-07-18T16:34:28.267680","CLASSIFICATION_TYPE":"U","MEAN_MOTION":14.91432989,"ECCENTRICITY":0.0005614,"INCLINATION":97.7323,"RA_OF_ASC_NODE":96.4992,"ARG_OF_PERICENTER":55.3591,"MEAN_ANOMALY":304.8156,"EPHEMERIS_TYPE":0,"NORAD_CAT_ID":68996,"ELEMENT_SET_NO":999,"REV_AT_EPOCH":1139,"BSTAR":0.00010217,"MEAN_MOTION_DOT":0.00000966,"MEAN_MOTION_DDOT":0}]}
