ICEYE-X72               
1 68504U 26067CS  26199.31261310  .00095641  00000+0  82712-2 0  9994
2 68504  97.7643 157.2619 0001239 169.2669 190.8579 14.96699913 16379
ICEYE-X78               
1 68995U 26100R   26199.46653965  .00000532  00000+0  58215-4 0  9991
2 68995  97.7328  96.3374 0003385  48.0647 312.0860 14.91815319 11368
ICEYE-X82               
1 68996U 26100S   26199.69060495  .00000966  00000+0  10217-3 0  9997
2 68996  97.7323  96.4992 0005614  55.3591 304.8156 14.91432989 11395
